[{"OBJECT_NAME":"STARLINK-5578","OBJECT_ID":"2023-013AV","EPOCH":"2026-03-09T01:00:28.004256","MEAN_MOTION":15.02538729,"ECCENTRICITY":0.00011839,"INCLINATION":43.0054,"RA_OF_ASC_NODE":316.6999,"ARG_OF_PERICENTER":277.8174,"MEAN_ANOMALY":82.2534,"EPHEMERIS_TYPE":0,"CLASSIFICATION_TYPE":"U","NORAD_CAT_ID":55374,"ELEMENT_SET_NO":999,"REV_AT_EPOCH":17146,"BSTAR":5.6406719e-5,"MEAN_MOTION_DOT":5.58e-6,"MEAN_MOTION_DDOT":0},{"OBJECT_NAME":"PSLV DEB","OBJECT_ID":"2001-049CY","EPOCH":"2026-03-09T18:20:37.296384","MEAN_MOTION":15.08389698,"ECCENTRICITY":0.00190632,"INCLINATION":97.9861,"RA_OF_ASC_NODE":156.2845,"ARG_OF_PERICENTER":340.3269,"MEAN_ANOMALY":19.722,"EPHEMERIS_TYPE":0,"CLASSIFICATION_TYPE":"U","NORAD_CAT_ID":27152,"ELEMENT_SET_NO":999,"REV_AT_EPOCH":30598,"BSTAR":0.00053695108,"MEAN_MOTION_DOT":8.318e-5,"MEAN_MOTION_DDOT":0}]
